OBJECT_NAME,OBJECT_ID,EPOCH,MEAN_MOTION,ECCENTRICITY,INCLINATION,RA_OF_ASC_NODE,ARG_OF_PERICENTER,MEAN_ANOMALY,EPHEMERIS_TYPE,CLASSIFICATION_TYPE,NORAD_CAT_ID,ELEMENT_SET_NO,REV_AT_EPOCH,BSTAR,MEAN_MOTION_DOT,MEAN_MOTION_DDOT
GAOFEN-11 01,2018-063A,2026-06-15T15:06:01.357632,15.55257911,.00033299,97.1296,233.5133,5.0684,355.0604,0,U,43585,999,44010,.26928114E-3,.18144E-3,0
ICESAT-2,2018-070A,2026-06-15T14:00:19.210752,15.28258575,.00059559,92.0082,290.5454,110.0934,250.0957,0,U,43613,999,43221,.28744176E-3,.7915E-4,0
HYSIS,2018-096A,2026-06-15T14:05:47.967072,14.78693431,.00018857,97.9847,233.3482,106.5366,253.6052,0,U,43719,999,40718,.1305315E-3,.905E-5,0
KAZSTSAT,2018-099AB,2026-06-15T13:30:48.980160,14.99861591,.00084281,97.4267,198.5652,74.1027,286.1125,0,U,43783,999,41106,.11484822E-3,.1368E-4,0
SAUDISAT 5A,2018-102A,2026-06-15T14:14:09.958848,15.28034177,.00109363,97.3070,228.2046,133.8603,226.3542,0,U,43831,999,41543,.18832683E-3,.5084E-4,0
SAUDISAT 5B,2018-102C,2026-06-15T14:41:41.239104,15.28291633,.00116088,97.3178,231.2902,136.1849,224.0313,0,U,43833,999,41555,.17075928E-3,.464E-4,0
GAOFEN-10R,2019-066A,2026-06-15T14:26:53.515392,14.83057585,.00065721,98.0497,120.1697,131.8492,228.3283,0,U,44622,999,36214,.12530934E-3,.965E-5,0
CARTOSAT-3,2019-081A,2026-06-15T15:25:10.862976,15.19274284,.00130728,97.4312,228.5341,153.5966,206.5938,0,U,44804,999,36323,.19506841E-3,.4054E-4,0
GAOFEN-12 01,2019-082A,2026-06-15T14:13:36.407136,14.80457372,.00023201,97.8100,173.0143,72.3661,287.7805,0,U,44819,999,35385,.48977715E-4,.324E-5,0
CSG-1,2019-092A,2026-06-15T13:35:12.260832,14.82151913,.00014507,97.8888,350.1921,89.5973,270.5406,0,U,44873,999,35123,.49778823E-4,.344E-5,0
NEMO-HD,2020-061F,2026-06-15T15:21:10.657152,15.44567043,.00023611,97.1922,228.6081,82.8363,277.3154,0,U,46277,999,32174,.20064938E-3,.9236E-4,0
SENTINEL-6A,2020-086A,2026-06-15T06:57:13.275936,12.80929979,.0007943,66.0393,138.9934,270.2644,89.7461,0,U,46984,999,26008,-.39192E-4,-.7E-6,0
CAS500-1,2021-022A,2026-06-15T14:45:26.455392,15.20193000,.00038519,97.3907,61.9006,310.0914,49.9983,0,U,47932,999,29052,.23635515E-3,.5052E-4,0
GAOFEN-12 02,2021-026A,2026-06-15T14:29:17.100096,14.80295050,.00035853,97.9928,164.7907,228.3696,131.7209,0,U,48079,999,28152,.46366507E-4,.3E-5,0
PLEIADES NEO 3,2021-034A,2026-06-15T15:10:36.660864,14.81672016,.00013833,97.8938,241.4215,88.0096,272.1275,0,U,48268,999,27742,.17727095E-3,.1343E-4,0
PLEIADES NEO 4,2021-073E,2026-06-15T07:52:59.121984,14.81674262,.00013742,97.8943,241.1176,86.0176,274.1194,0,U,49070,999,26109,.19081349E-3,.145E-4,0
LANDSAT 9,2021-088A,2026-06-15T11:30:51.834240,14.57095945,.00013879,98.2281,236.6779,85.5802,274.5555,0,U,49260,999,25075,.76246388E-4,.298E-5,0
CSG-2,2022-008A,2026-06-15T14:23:47.499648,14.82155264,.00014172,97.8876,350.2205,85.7268,274.4107,0,U,51444,999,23635,.58299177E-4,.412E-5,0
GAOFEN-12 03,2022-069A,2026-06-15T15:11:57.323904,14.80030731,.00019541,97.8290,54.5432,103.8500,256.2929,0,U,52912,999,21438,.54575428E-4,.362E-5,0
SWOT,2022-173A,2026-06-15T13:25:12.103104,14.00169453,.0000239,77.6107,37.5080,89.7425,270.3754,0,U,54754,999,17892,.2583619E-4,.36E-6,0
GAOFEN-12 04,2023-123A,2026-06-15T15:36:16.007328,14.80226110,.0001795,97.9123,84.6900,83.9720,276.1697,0,U,57654,999,15240,.11736824E-3,.841E-5,0
PARS 1,2024-039Q,2026-06-15T15:09:08.487936,15.45696371,.00114334,97.4819,147.5021,116.2827,243.9598,0,U,59065,999,12840,.19792319E-3,.9485E-4,0
RESURS-P 4,2024-061A,2026-06-15T15:07:45.352128,15.32123379,.00020563,97.2755,114.5563,128.2315,231.9113,0,U,59371,999,12352,.89748393E-4,.2707E-4,0
LEGION 1,2024-081A,2026-06-15T12:16:44.490720,15.16656898,.0009678,97.5022,244.3862,23.5009,336.6664,0,U,59625,999,11728,.17208723E-3,.3303E-4,0
LEGION 2,2024-081B,2026-06-15T12:59:52.689120,15.16636239,.00109272,97.5022,244.5134,349.6684,10.4322,0,U,59626,999,11729,.16426233E-3,.3149E-4,0
ALOS-4 (DAICHI-4),2024-123A,2026-06-15T14:28:15.582432,14.79474296,.0001584,97.9245,263.7990,97.8776,262.2616,0,U,60182,999,10564,.17698589E-3,.1271E-4,0
LEGION 3,2024-146A,2026-06-15T13:11:17.642400,15.16027445,.00074361,45.0023,39.3384,160.7825,199.3335,0,U,60452,999,10177,.16440027E-3,.2951E-4,0
LEGION 4,2024-146B,2026-06-15T08:31:03.970848,15.16017143,.00139091,44.9999,132.2917,298.8339,61.1143,0,U,60453,999,10059,.17192296E-3,.3101E-4,0
SENTINEL-2C,2024-157A,2026-06-15T11:51:40.933728,14.30817360,.00010552,98.5692,241.3001,81.2138,278.9165,0,U,60989,999,9274,.5080467E-4,.9E-6,0
IONOSFERA-M 1,2024-199A,2026-06-15T13:49:51.932064,14.22754020,.00019075,98.7174,39.7655,112.6355,247.5025,0,U,61735,999,12747,.43322362E-4,.53E-6,0
