GAOFEN-11 01            
1 43585U 18063A   26166.62918238  .00018144  00000+0  26928-3 0  9990
2 43585  97.1296 233.5133 0003329   5.0684 355.0604 15.55257911440104
ICESAT-2                
1 43613U 18070A   26166.58355568  .00007915  00000+0  28744-3 0  9998
2 43613  92.0082 290.5454 0005955 110.0934 250.0957 15.28258575432219
HYSIS                   
1 43719U 18096A   26166.58736073  .00000905  00000+0  13053-3 0  9996
2 43719  97.9847 233.3482 0001885 106.5366 253.6052 14.78693431407183
KAZSTSAT                
1 43783U 18099AB  26166.56306690  .00001368  00000+0  11485-3 0  9997
2 43783  97.4267 198.5652 0008428  74.1027 286.1125 14.99861591411061
SAUDISAT 5A             
1 43831U 18102A   26166.59317082  .00005084  00000+0  18833-3 0  9999
2 43831  97.3070 228.2046 0010936 133.8603 226.3542 15.28034177415433
SAUDISAT 5B             
1 43833U 18102C   26166.61228286  .00004640  00000+0  17076-3 0  9996
2 43833  97.3178 231.2902 0011608 136.1849 224.0313 15.28291633415550
GAOFEN-10R              
1 44622U 19066A   26166.60200828  .00000965  00000+0  12531-3 0  9991
2 44622  98.0497 120.1697 0006572 131.8492 228.3283 14.83057585362141
CARTOSAT-3              
1 44804U 19081A   26166.64248684  .00004054  00000+0  19507-3 0  9999
2 44804  97.4312 228.5341 0013072 153.5966 206.5938 15.19274284363234
GAOFEN-12 01            
1 44819U 19082A   26166.59278249  .00000324  00000+0  48978-4 0  9991
2 44819  97.8100 173.0143 0002320  72.3661 287.7805 14.80457372353856
CSG-1                   
1 44873U 19092A   26166.56611413  .00000344  00000+0  49779-4 0  9995
2 44873  97.8888 350.1921 0001450  89.5973 270.5406 14.82151913351231
NEMO-HD                 
1 46277U 20061F   26166.63970668  .00009236  00000+0  20065-3 0  9996
2 46277  97.1922 228.6081 0002361  82.8363 277.3154 15.44567043321742
SENTINEL-6A             
1 46984U 20086A   26166.28973699 -.00000070  00000+0 -39192-4 0  9997
2 46984  66.0393 138.9934 0007943 270.2644  89.7461 12.80929979260082
CAS500-1                
1 47932U 21022A   26166.61488953  .00005052  00000+0  23636-3 0  9991
2 47932  97.3907  61.9006 0003851 310.0914  49.9983 15.20193000290520
GAOFEN-12 02            
1 48079U 21026A   26166.60367014  .00000300  00000+0  46367-4 0  9999
2 48079  97.9928 164.7907 0003585 228.3696 131.7209 14.80295050281520
PLEIADES NEO 3          
1 48268U 21034A   26166.63236876  .00001343  00000+0  17727-3 0  9997
2 48268  97.8938 241.4215 0001383  88.0096 272.1275 14.81672016277423
PLEIADES NEO 4          
1 49070U 21073E   26166.32846206  .00001450  00000+0  19081-3 0  9996
2 49070  97.8943 241.1176 0001374  86.0176 274.1194 14.81674262261094
LANDSAT 9               
1 49260U 21088A   26166.47976660  .00000298  00000+0  76246-4 0  9993
2 49260  98.2281 236.6779 0001387  85.5802 274.5555 14.57095945250751
CSG-2                   
1 51444U 22008A   26166.59985532  .00000412  00000+0  58299-4 0  9990
2 51444  97.8876 350.2205 0001417  85.7268 274.4107 14.82155264236353
GAOFEN-12 03            
1 52912U 22069A   26166.63330236  .00000362  00000+0  54575-4 0  9995
2 52912  97.8290  54.5432 0001954 103.8500 256.2929 14.80030731214385
SWOT                    
1 54754U 22173A   26166.55916786  .00000036  00000+0  25836-4 0  9994
2 54754  77.6107  37.5080 0000239  89.7425 270.3754 14.00169453178925
GAOFEN-12 04            
1 57654U 23123A   26166.65018527  .00000841  00000+0  11737-3 0  9997
2 57654  97.9123  84.6900 0001795  83.9720 276.1697 14.80226110152403
PARS 1                  
1 59065U 24039Q   26166.63134824  .00009485  00000+0  19792-3 0  9991
2 59065  97.4819 147.5021 0011433 116.2827 243.9598 15.45696371128406
RESURS-P 4              
1 59371U 24061A   26166.63038602  .00002707  00000+0  89748-4 0  9992
2 59371  97.2755 114.5563 0002056 128.2315 231.9113 15.32123379123521
LEGION 1                
1 59625U 24081A   26166.51162605  .00003303  00000+0  17209-3 0  9999
2 59625  97.5022 244.3862 0009678  23.5009 336.6664 15.16656898117280
LEGION 2                
1 59626U 24081B   26166.54158205  .00003149  00000+0  16426-3 0  9992
2 59626  97.5022 244.5134 0010927 349.6684  10.4322 15.16636239117291
ALOS-4 (DAICHI-4)       
1 60182U 24123A   26166.60295813  .00001271  00000+0  17699-3 0  9999
2 60182  97.9245 263.7990 0001584  97.8776 262.2616 14.79474296105647
LEGION 3                
1 60452U 24146A   26166.54950975  .00002951  00000+0  16440-3 0  9993
2 60452  45.0023  39.3384 0007436 160.7825 199.3335 15.16027445101776
LEGION 4                
1 60453U 24146B   26166.35490707  .00003101  00000+0  17192-3 0  9998
2 60453  44.9999 132.2917 0013909 298.8339  61.1143 15.16017143100593
SENTINEL-2C             
1 60989U 24157A   26166.49422377  .00000090  00000+0  50805-4 0  9990
2 60989  98.5692 241.3001 0001055  81.2138 278.9165 14.30817360 92741
IONOSFERA-M 1           
1 61735U 24199A   26166.57629551  .00000053  00000+0  43322-4 0  9993
2 61735  98.7174  39.7655 0001907 112.6355 247.5025 14.22754020127478
